437P/Lemmon-PANSTARRS,e,3.6889,245.8411,207.0936,4.569591,0.1008993,0.25501870,113.8724,09/22.0/2025,2000,g 13.0,4.0
# From MPEC 2025-A40
438P/Christensen,e,8.2807,260.1080,58.9709,3.853064,0.1303151,0.41409714,260.5546,09/22.0/2025,2000,g 14.5,4.0
# From MPEC 2022-C56
439P/LINEAR,e,7.1114,56.4379,342.1081,3.491997,0.1510405,0.46900240,224.6948,09/22.0/2025,2000,g 13.5,4.0
# From MPEC 2024-N80
440P/Kobayashi,e,12.3530,328.7970,183.3064,8.580074,0.0392164,0.76094138,49.8626,09/22.0/2025,2000,g 15.5,4.0
# From MPEC 2025-SH3
441P/PANSTARRS,e,2.5744,143.5861,178.8633,4.131629,0.1173605,0.19452376,1.4832,09/22.0/2025,2000,g 13.5,4.0
# From MPEC 2024-N80
442P/McNaught,e,6.0577,31.9248,310.6245,4.952888,0.0894162,0.53260882,101.1795,09/22.0/2025,2000,g 13.5,4.0
# From MPEC 2024-TD8
443P/PANSTARRS-Christensen,e,19.8880,108.9334,145.0561,4.124489,0.1176654,0.28285599,126.9405,09/22.0/2025,2000,g 13.5,4.0
# From MPEC 2023-VM5
444P/WISE-PANSTARRS,e,22.7092,88.1922,172.8311,3.476603,0.1520448,0.55596743,179.7140,09/22.0/2025,2000,g 17.0,4.0
# From MPEC 2025-R69
445P/Lemmon-PANSTARRS,e,1.0891,126.5935,213.1384,4.045135,0.1211447,0.41432052,137.2565,09/22.0/2025,2000,g 15.0,4.0
# From MPEC 2024-NE4
446P/McNaught,e,16.6358,336.3204,344.6127,4.558701,0.1012610,0.64683991,122.7832,09/22.0/2025,2000,g 16.5,4.0
# From MPEC 2022-YB4
447P/Sheppard-Tholen,e,7.4415,302.6378,97.4494,5.624509,0.0738885,0.17710964,83.7492,09/22.0/2025,2000,g 12.0,4.0
# From MPEC 2024-PC5
448P/PANSTARRS,e,12.1439,161.7517,218.8059,3.636689,0.1421166,0.41803709,158.0329,09/22.0/2025,2000,g 16.0,4.0
# From MPEC 2024-DC6
449P/Leonard,e,15.4694,242.5206,176.7746,3.599675,0.1443143,0.47974408,254.1905,09/22.0/2025,2000,g 16.0,4.0
# From MPC184420
450P/LONEOS,e,10.7687,124.0765,24.6560,7.909548,0.0443074,0.31393433,337.5184,09/22.0/2025,2000,g  6.5,4.0
# From MPEC 2023-HD1
451P/Christensen,e,26.4864,300.8643,186.8065,6.351091,0.0615788,0.55927987,63.3609,09/22.0/2025,2000,g 13.5,4.0
# From MPEC 2024-NE4
452P/Sheppard-Jewitt,e,6.4222,123.6625,37.1084,7.312361,0.0498445,0.42866973,43.8577,09/22.0/2025,2000,g  9.0,4.0
# From MPEC 2023-RF3
453P/WISE-Lemmon,e,27.0571,42.8895,70.9103,5.468096,0.0770814,0.58317531,71.9608,09/22.0/2025,2000,g 14.0,4.0
# From MPEC 2023-CD7
454P/PANSTARRS,e,19.8081,54.5864,20.2114,4.211881,0.1140224,0.36136478,131.5021,09/22.0/2025,2000,g 14.0,4.0
# From MPEC 2022-Y14
455P/PANSTARRS,e,14.1342,146.1776,237.5396,3.153605,0.1759921,0.30434309,165.4635,09/22.0/2025,2000,g 17.0,4.0
# From MPC182892
456P/PANSTARRS,e,16.9649,243.1396,232.9834,3.168962,0.1747144,0.11572816,27.9890,09/22.0/2025,2000,g 13.5,4.0
# From MPEC 2025-A40
457P/Lemmon-PANSTARRS,e,5.2258,175.9638,104.3006,2.645042,0.2291159,0.11834054,91.1893,09/22.0/2025,2000,g 15.5,4.0
# From MPEC 2023-HD1
458P/Jahn,e,13.6218,1.5540,104.9541,3.859409,0.1299939,0.31726780,137.4170,09/22.0/2025,2000,g 14.0,4.0
# From MPEC 2024-N80
459P/Catalina,e,7.1735,256.9872,205.2310,3.240450,0.1689648,0.57787919,159.3733,09/22.0/2025,2000,g 15.5,4.0
# From MPEC 2023-G14
460P/PANSTARRS,e,18.9003,180.5174,351.9321,3.027415,0.1871096,0.66426269,291.7770,09/22.0/2025,2000,g 21.0,4.0
# From MPEC 2024-GJ3
461P/WISE,e,18.3971,194.3749,174.8293,3.144534,0.1767542,0.56949516,256.0528,09/22.0/2025,2000,g 18.5,4.0
# From MPEC 2024-BE0
462P/LONEOS-PANSTARRS,e,7.0521,322.6435,4.1836,4.859723,0.0919998,0.57862729,105.6239,09/22.0/2025,2000,g 17.0,4.0
# From MPEC 2024-GJ3
463P/NEOWISE,e,29.2966,283.2187,216.3409,2.974046,0.1921687,0.82595046,174.3099,09/22.0/2025,2000,g 18.0,4.0
# From MPEC 2024-Q20
464P/PANSTARRS,e,21.6740,309.5789,267.5019,4.683424,0.0972431,0.28064619,91.1875,09/22.0/2025,2000,g 10.5,4.0
# From MPEC 2024-NE4
465P/Hill,e,25.8617,217.9430,140.9741,6.005886,0.0669635,0.61305616,58.0713,09/22.0/2025,2000,g 12.5,4.0
# From MPEC 2024-JU4
466P/PANSTARRS,e,13.7745,116.8022,198.1761,4.006149,0.1229174,0.48655592,105.8352,09/22.0/2025,2000,g 14.0,4.0
# From MPEC 2025-A40
467P/LINEAR-Grauer,e,2.4794,43.2623,267.3497,5.825210,0.0701030,0.05435002,72.3592,09/22.0/2025,2000,g  9.0,4.0
# From MPEC 2024-O39
468P/SidingSpring,e,50.4537,356.1280,322.5685,7.115921,0.0519227,0.44484215,34.8399,09/22.0/2025,2000,g 11.5,4.0
# From MPEC 2025-A40
469P/PANSTARRS,e,20.1715,178.9666,43.4914,4.343054,0.1088958,0.30808895,351.5729,09/22.0/2025,2000,g 13.5,4.0
# From MPC182892
470P/PANSTARRS,e,8.8439,246.1641,151.6673,4.462715,0.1045455,0.38930092,67.4730,09/22.0/2025,2000,g 15.5,4.0
# From MPC182892
471P/LINEAR-Lemmon,e,4.7970,283.3125,94.7574,5.690762,0.0726020,0.62762914,46.6291,09/22.0/2025,2000,g 12.0,4.0
# From MPC185666
472P/NEAT-LINEAR,e,10.8252,205.8235,218.8199,7.770631,0.0455009,0.56415347,19.7984,09/22.0/2025,2000,g 10.5,4.0
# From MPEC 2024-MB8
473P/NEAT,e,56.8909,22.1909,42.9425,7.973456,0.0437758,0.82359142,25.1172,09/22.0/2025,2000,g 13.5,4.0
# From MPEC 2024-B74
474P/Hogan,e,1.0969,26.7512,11.2683,3.130703,0.1779268,0.18797898,142.2323,09/22.0/2025,2000,g 15.5,4.0
# From MPC185666
475P/Spacewatch-LINEAR,e,14.5239,147.3558,40.4153,7.319144,0.0497753,0.44292167,23.7578,09/22.0/2025,2000,g 11.0,4.0
# From MPC184421
476P/PANSTARRS,e,19.0053,57.0487,46.7385,4.774663,0.0944691,0.34581079,32.1684,09/22.0/2025,2000,g 12.5,4.0
# From MPEC 2024-GJ3
477P/PANSTARRS,e,8.9138,59.1420,305.8663,3.001739,0.1895155,0.41755615,120.4394,09/22.0/2025,2000,g 14.5,4.0
# From MPEC 2024-L77
478P/ATLAS,e,12.5250,127.2604,13.2562,3.648247,0.1414418,0.34379250,71.8216,09/22.0/2025,2000,g 13.5,4.0
# From MPEC 2024-PC5
479P/Elenin,e,15.3999,295.8329,263.4984,5.622628,0.0739256,0.77894180,37.3117,09/22.0/2025,2000,g 15.0,4.0
# From MPC182893
480P/PANSTARRS,e,13.7162,229.9829,214.4449,4.611389,0.0995305,0.24628509,87.7976,09/22.0/2025,2000,g 12.0,4.0
# From MPEC 2025-A40
481P/Lemmon-PANSTARRS,e,6.0827,93.5497,356.8253,4.682296,0.0972783,0.34344686,78.3701,09/22.0/2025,2000,g 13.5,4.0
# From MPEC 2024-JU4
482P/PANSTARRS,e,24.4883,126.0738,339.7367,3.757100,0.1353396,0.49236889,114.0616,09/22.0/2025,2000,g 13.5,4.0
# From MPC186638
483P-A/PANSTARRS,e,14.1766,199.1113,49.3913,3.195422,0.1725487,0.22189154,225.2919,09/22.0/2025,2000,g 13.5,4.0
# From MPC185666
483P-B/PANSTARRS,e,14.1774,199.1105,49.3821,3.195343,0.1725551,0.22183365,225.3275,09/22.0/2025,2000,g 17.0,4.0
# From MPEC 2024-DD5
484P/Spacewatch,e,14.4742,265.3756,240.8132,3.756563,0.1353686,0.43304717,238.0935,09/22.0/2025,2000,g 16.0,4.0
# From MPEC 2024-JU4
485P/Sheppard-Tholen,e,10.0161,261.6442,196.1219,6.852028,0.0549510,0.41719251,41.6894,09/22.0/2025,2000,g 13.0,4.0
# From MPEC 2025-SH3
486P/Leonard,e,2.2096,219.0234,93.9417,3.627306,0.1426684,0.36344967,24.4201,09/22.0/2025,2000,g 14.5,4.0
# From MPC185666
487P/SidingSpring,e,39.3662,49.2009,0.8406,5.161215,0.0840574,0.64839061,28.2792,09/22.0/2025,2000,g 13.5,4.0
# From MPEC 2024-UA9
488P/NEAT-PANSTARRS,e,11.3972,323.7889,1.9833,3.746632,0.1359072,0.55144852,66.6134,09/22.0/2025,2000,g 16.5,4.0
# From MPEC 2024-Q14
489P/Denning,e,4.0259,20.6040,109.4184,4.425820,0.1058555,0.64722349,352.2395,09/22.0/2025,2000,g 15.5,4.0
# From MPEC 2024-YC7
490P/ATLAS,e,12.2668,307.5933,332.5668,3.030382,0.1868349,0.64706651,67.0461,09/22.0/2025,2000,g 21.0,4.0
# From MPEC 2025-SH3
491P/Spacewatch-PANSTARRS,e,9.3668,311.6835,298.8594,5.012921,0.0878148,0.25867644,33.4691,09/22.0/2025,2000,g  9.5,4.0
# From MPC185666
492P/LINEAR,e,11.4012,11.3047,40.9818,5.758885,0.0713176,0.69056173,30.5650,09/22.0/2025,2000,g 15.0,4.0
# From MPEC 2025-SH3
493P/LONEOS,e,24.1096,1.0970,83.2121,7.171896,0.0513160,0.46694707,354.1455,09/22.0/2025,2000,g 12.0,2.0
# From MPEC 2024-RQ6
494P/PANSTARRS,e,7.7899,245.0434,48.8835,3.794403,0.1333488,0.35675114,63.8780,09/22.0/2025,2000,g 16.0,4.0
# From MPEC 2025-A40
495P/Christensen,e,26.3558,291.6148,141.3320,4.758922,0.0949382,0.27296250,357.1210,09/22.0/2025,2000,g 11.5,4.0
# From MPEC 2025-R69
496P/Hill,e,14.8144,63.5860,42.2476,6.098911,0.0654373,0.73420182,12.8076,09/22.0/2025,2000,g 14.0,4.0
# From MPC184421
497P/Spacewatch-PANSTARRS,e,10.4368,40.3641,32.3936,5.612508,0.0741257,0.63031340,16.2135,09/22.0/2025,2000,g 17.5,4.0
# From MPC184421
498P/LINEAR,e,14.4827,279.2299,179.0850,4.592803,0.1001353,0.57228299,27.7461,09/22.0/2025,2000,g 14.7,4.0
# From MPEC 2025-R69
499P/Catalina,e,24.5827,139.3062,2.5621,3.017863,0.1879987,0.69148139,37.9011,09/22.0/2025,2000,g 18.5,4.0
# From MPC185667
500P/PANSTARRS,e,2.3015,111.5270,46.6967,3.415975,0.1561105,0.37591228,27.1686,09/22.0/2025,2000,g 16.0,4.0
# From MPC182882
501P/Rankin,e,10.0472,139.7822,53.6880,2.227944,0.2963792,0.69850535,155.8030,09/22.0/2025,2000,g 21.5,4.0
# From MPEC 2025-S35
502P/NEAT,e,11.3995,264.4845,37.7338,7.996286,0.0435885,0.47106792,2.0910,09/22.0/2025,2000,g  8.5,4.0
# From MPC185667
503P/PANSTARRS,e,10.5749,268.5819,17.9468,3.658019,0.1408754,0.48131403,353.7230,09/22.0/2025,2000,g 15.0,4.0
# From MPC186639
504P/,e,8.8066,221.1201,308.5292,3.744581,0.1360189,0.40605098,22.5730,09/22.0/2025,2000,g 14.3,4.0
# From MPC184407
505P/Palomar,e,11.3882,111.9422,143.9591,4.112656,0.1181736,0.31064363,346.0926,09/22.0/2025,2000,g 14.9,4.0
# From MPC186639
506P/,e,13.6531,325.6406,354.5293,5.584117,0.0746917,0.48260534,56.5665,09/22.0/2025,2000,g 12.7,4.0
# From MPC184407
507P/Lemmon,e,17.0965,233.1692,107.7710,6.216157,0.0635947,0.56869236,65.2404,09/22.0/2025,2000,g 12.6,4.0
# From MPEC 2025-R69
508P/McNaught,e,31.7335,268.8302,338.8792,3.574948,0.1458141,0.56941909,10.6077,09/22.0/2025,2000,g 16.5,4.0
# From MPEC 2025-R69
509P/Catalina,e,8.6043,275.2071,180.1188,7.032516,0.0528491,0.47489579,350.5429,09/22.0/2025,2000,g 10.0,4.0
# From MPEC 2025-SH3
510P/Boattini,e,8.2278,280.6703,86.6824,6.484186,0.0596927,0.24815063,338.9767,09/22.0/2025,2000,g  9.5,4.0
# From MPC107687
1I/`Oumuamua,h,09/09.4886/2017,122.6778,24.5997,241.6845,1.199252,0.255240,2000,23.0,2.0
# From MPEC 2025-R69
2I/Borisov,h,12/09.0572/2019,44.2624,307.8024,209.2911,3.345952,1.997724,2000,11.0,4.0
# From MPEC 2025-S35
